[{"OBJECT_NAME":"STARLINK-3071","OBJECT_ID":"2021-082T","EPOCH":"2026-03-09T22:19:52.183776","MEAN_MOTION":14.98331789,"ECCENTRICITY":0.00029441,"INCLINATION":69.9986,"RA_OF_ASC_NODE":253.8497,"ARG_OF_PERICENTER":271.7644,"MEAN_ANOMALY":88.3178,"EPHEMERIS_TYPE":0,"CLASSIFICATION_TYPE":"U","NORAD_CAT_ID":49147,"ELEMENT_SET_NO":999,"REV_AT_EPOCH":24700,"BSTAR":2.3521019e-5,"MEAN_MOTION_DOT":1.88e-6,"MEAN_MOTION_DDOT":0},{"OBJECT_NAME":"H-2A R\/B","OBJECT_ID":"2012-025E","EPOCH":"2026-03-09T20:41:54.522240","MEAN_MOTION":14.95172532,"ECCENTRICITY":0.00433117,"INCLINATION":98.4741,"RA_OF_ASC_NODE":35.9227,"ARG_OF_PERICENTER":313.9175,"MEAN_ANOMALY":45.8471,"EPHEMERIS_TYPE":0,"CLASSIFICATION_TYPE":"U","NORAD_CAT_ID":38341,"ELEMENT_SET_NO":999,"REV_AT_EPOCH":74824,"BSTAR":0.00044934548,"MEAN_MOTION_DOT":4.959e-5,"MEAN_MOTION_DDOT":0}]
